start=new Date('2023-01-28T00:00:00.000Z').valueOf();
sats=[{"OBJECT_NAME":"STARLINK-3555","SEMIMAJOR_AXIS":"6917.879","PERIAPSIS":"538.832","EPHEMERIS_TYPE":"0","BSTAR":"0.00016877000000","REF_FRAME":"TEME","COUNTRY_CODE":"US","MEAN_MOTION":"15.08840392","INCLINATION":"53.2160","LAUNCH_DATE":"2022-03-03","REV_AT_EPOCH":"5148","APOAPSIS":"540.657","TLE_LINE2":"2 51863  53.2160  72.7021 0001319  99.9206 260.1935 15.08840392 51484","SITE":"AFETR","RA_OF_ASC_NODE":"72.7021","FILE":"3763218","DECAY_DATE":null,"NORAD_CAT_ID":"51863","MEAN_ANOMALY":"260.1935","OBJECT_TYPE":"PAYLOAD","MEAN_ELEMENT_THEORY":"SGP4","TIME_SYSTEM":"UTC","OBJECT_ID":"2022-022M","TLE_LINE1":"1 51863U 22022M   23027.82805941  .00002399  00000-0  16877-3 0  9997","ELEMENT_SET_NO":"999","PERIOD":"95.438","CENTER_NAME":"EARTH","EPOCH":"2023-01-27T19:52:24.333024","ECCENTRICITY":"0.00013190","ARG_OF_PERICENTER":"99.9206","MEAN_MOTION_DDOT":"0.0000000000000","GP_ID":"223838818","MEAN_MOTION_DOT":"0.00002399","RCS_SIZE":"MEDIUM","CLASSIFICATION_TYPE":"U"},{"RCS_SIZE":"LARGE","MEAN_MOTION_DOT":"0.00000820","GP_ID":"223839569","CLASSIFICATION_TYPE":"U","OBJECT_ID":"2022-022N","MEAN_ELEMENT_THEORY":"SGP4","TIME_SYSTEM":"UTC","OBJECT_TYPE":"PAYLOAD","MEAN_ANOMALY":"263.0490","NORAD_CAT_ID":"51864","MEAN_MOTION_DDOT":"0.0000000000000","ECCENTRICITY":"0.00012770","ARG_OF_PERICENTER":"97.0647","EPOCH":"2023-01-27T20:08:18.277152","CENTER_NAME":"EARTH","ELEMENT_SET_NO":"999","PERIOD":"95.437","TLE_LINE1":"1 51864U 22022N   23027.83910043  .00000820  00000-0  69618-4 0  9998","APOAPSIS":"540.622","REV_AT_EPOCH":"5153","LAUNCH_DATE":"2022-03-03","INCLINATION":"53.2156","MEAN_MOTION":"15.08842274","DECAY_DATE":null,"FILE":"3763218","RA_OF_ASC_NODE":"72.6529","TLE_LINE2":"2 51864  53.2156  72.6529 0001277  97.0647 263.0490 15.08842274 51538","SITE":"AFETR","PERIAPSIS":"538.855","SEMIMAJOR_AXIS":"6917.873","OBJECT_NAME":"STARLINK-3548","COUNTRY_CODE":"US","REF_FRAME":"TEME","BSTAR":"0.00006961800000","EPHEMERIS_TYPE":"0"},{"RCS_SIZE":"LARGE","MEAN_MOTION_DOT":"0.00000929","GP_ID":"223838318","CLASSIFICATION_TYPE":"U","OBJECT_ID":"2022-022P","MEAN_ELEMENT_THEORY":"SGP4","TIME_SYSTEM":"UTC","MEAN_ANOMALY":"253.0339","OBJECT_TYPE":"PAYLOAD","NORAD_CAT_ID":"51865","ECCENTRICITY":"0.00013860","ARG_OF_PERICENTER":"107.0805","MEAN_MOTION_DDOT":"0.0000000000000","EPOCH":"2023-01-27T19:41:48.400512","CENTER_NAME":"EARTH","TLE_LINE1":"1 51865U 22022P   23027.82069908  .00000929  00000-0  76481-4 0  9999","PERIOD":"95.438","ELEMENT_SET_NO":"999","REV_AT_EPOCH":"5148","APOAPSIS":"540.703","LAUNCH_DATE":"2022-03-03","MEAN_MOTION":"15.08840447","INCLINATION":"53.2164","DECAY_DATE":null,"FILE":"3763218","TLE_LINE2":"2 51865  53.2164  72.7291 0001386 107.0805 253.0339 15.08840447 51489","SITE":"AFETR","RA_OF_ASC_NODE":"72.7291","PERIAPSIS":"538.785","OBJECT_NAME":"STARLINK-3503","SEMIMAJOR_AXIS":"6917.879","COUNTRY_CODE":"US","BSTAR":"0.00007648100000","REF_FRAME":"TEME","EPHEMERIS_TYPE":"0"},{"SEMIMAJOR_AXIS":"6917.873","OBJECT_NAME":"STARLINK-3553","PERIAPSIS":"538.735","EPHEMERIS_TYPE":"0","REF_FRAME":"TEME","BSTAR":"0.00007015500000","COUNTRY_CODE":"US","MEAN_MOTION":"15.08842441","INCLINATION":"53.2169","LAUNCH_DATE":"2022-03-03","APOAPSIS":"540.741","REV_AT_EPOCH":"5148","RA_OF_ASC_NODE":"72.6762","SITE":"AFETR","TLE_LINE2":"2 51866  53.2169  72.6762 0001450  87.4915 272.6243 15.08842441 51489","FILE":"3763218","DECAY_DATE":null,"NORAD_CAT_ID":"51866","OBJECT_TYPE":"PAYLOAD","MEAN_ANOMALY":"272.6243","MEAN_ELEMENT_THEORY":"SGP4","TIME_SYSTEM":"UTC","OBJECT_ID":"2022-022Q","ELEMENT_SET_NO":"999","PERIOD":"95.437","TLE_LINE1":"1 51866U 22022Q   23027.83173808  .00000829  00000-0  70155-4 0  9997","CENTER_NAME":"EARTH","EPOCH":"2023-01-27T19:57:42.170112","MEAN_MOTION_DDOT":"0.0000000000000","ECCENTRICITY":"0.00014500","ARG_OF_PERICENTER":"87.4915","GP_ID":"223838567","MEAN_MOTION_DOT":"0.00000829","RCS_SIZE":"LARGE","CLASSIFICATION_TYPE":"U"},{"MEAN_MOTION_DOT":"0.00000318","RCS_SIZE":"LARGE","GP_ID":"223839319","CLASSIFICATION_TYPE":"U","MEAN_ELEMENT_THEORY":"SGP4","TIME_SYSTEM":"UTC","OBJECT_ID":"2022-022R","NORAD_CAT_ID":"51867","MEAN_ANOMALY":"249.5824","OBJECT_TYPE":"PAYLOAD","EPOCH":"2023-01-27T19:36:30.459744","ARG_OF_PERICENTER":"110.5311","ECCENTRICITY":"0.00013380","MEAN_MOTION_DDOT":"0.0000000000000","TLE_LINE1":"1 51867U 22022R   23027.81701921  .00000318  00000-0  38078-4 0  9990","PERIOD":"95.438","ELEMENT_SET_NO":"999","CENTER_NAME":"EARTH","APOAPSIS":"540.672","REV_AT_EPOCH":"5148","MEAN_MOTION":"15.08839717","INCLINATION":"53.2160","LAUNCH_DATE":"2022-03-03","FILE":"3763218","DECAY_DATE":null,"TLE_LINE2":"2 51867  53.2160  72.7419 0001338 110.5311 249.5824 15.08839717 51484","SITE":"AFETR","RA_OF_ASC_NODE":"72.7419","OBJECT_NAME":"STARLINK-3590","SEMIMAJOR_AXIS":"6917.881","PERIAPSIS":"538.821","COUNTRY_CODE":"US","EPHEMERIS_TYPE":"0","BSTAR":"0.00003807800000","REF_FRAME":"TEME"},{"MEAN_ELEMENT_THEORY":"SGP4","TIME_SYSTEM":"UTC","OBJECT_ID":"2022-022S","NORAD_CAT_ID":"51868","MEAN_ANOMALY":"247.6148","OBJECT_TYPE":"PAYLOAD","EPOCH":"2023-01-27T19:47:06.488160","ARG_OF_PERICENTER":"112.4989","ECCENTRICITY":"0.00013730","MEAN_MOTION_DDOT":"0.0000000000000","TLE_LINE1":"1 51868U 22022S   23027.82438065 -.00000499  00000-0 -13247-4 0  9991","PERIOD":"95.438","ELEMENT_SET_NO":"999","CENTER_NAME":"EARTH","MEAN_MOTION_DOT":"-0.00000499","RCS_SIZE":"LARGE","GP_ID":"223839069","CLASSIFICATION_TYPE":"U","OBJECT_NAME":"STARLINK-3578","SEMIMAJOR_AXIS":"6917.893","PERIAPSIS":"538.808","COUNTRY_CODE":"US","EPHEMERIS_TYPE":"0","BSTAR":"-0.00001324700000","REF_FRAME":"TEME","REV_AT_EPOCH":"5148","APOAPSIS":"540.708","INCLINATION":"53.2164","MEAN_MOTION":"15.08835812","LAUNCH_DATE":"2022-03-03","FILE":"3763218","DECAY_DATE":null,"TLE_LINE2":"2 51868  53.2164  72.7103 0001373 112.4989 247.6148 15.08835812 51480","SITE":"AFETR","RA_OF_ASC_NODE":"72.7103"},{"TIME_SYSTEM":"UTC","MEAN_ELEMENT_THEORY":"SGP4","OBJECT_ID":"2022-022T","NORAD_CAT_ID":"51869","MEAN_ANOMALY":"268.7104","OBJECT_TYPE":"PAYLOAD","EPOCH":"2023-01-27T08:12:54.489312","ARG_OF_PERICENTER":"91.4034","ECCENTRICITY":"0.00012790","MEAN_MOTION_DDOT":"0.0000000000000","TLE_LINE1":"1 51869U 22022T   23027.34229733  .00001610  00000-0  11923-3 0  9991","PERIOD":"95.437","ELEMENT_SET_NO":"999","CENTER_NAME":"EARTH","MEAN_MOTION_DOT":"0.00001610","RCS_SIZE":"LARGE","GP_ID":"223807384","CLASSIFICATION_TYPE":"U","OBJECT_NAME":"STARLINK-3588","SEMIMAJOR_AXIS":"6917.868","PERIAPSIS":"538.848","COUNTRY_CODE":"US","EPHEMERIS_TYPE":"0","BSTAR":"0.00011923000000","REF_FRAME":"TEME","REV_AT_EPOCH":"5141","APOAPSIS":"540.618","MEAN_MOTION":"15.08844135","INCLINATION":"53.2136","LAUNCH_DATE":"2022-03-03","FILE":"3762956","DECAY_DATE":null,"SITE":"AFETR","TLE_LINE2":"2 51869  53.2136  74.8758 0001279  91.4034 268.7104 15.08844135 51418","RA_OF_ASC_NODE":"74.8758"},{"ELEMENT_SET_NO":"999","PERIOD":"95.438","TLE_LINE1":"1 51870U 22022U   23027.81333651 -.00000265  00000-0  14621-5 0  9996","CENTER_NAME":"EARTH","EPOCH":"2023-01-27T19:31:12.274464","MEAN_MOTION_DDOT":"0.0000000000000","ARG_OF_PERICENTER":"92.8090","ECCENTRICITY":"0.00011190","NORAD_CAT_ID":"51870","OBJECT_TYPE":"PAYLOAD","MEAN_ANOMALY":"267.3030","TIME_SYSTEM":"UTC","MEAN_ELEMENT_THEORY":"SGP4","OBJECT_ID":"2022-022U","CLASSIFICATION_TYPE":"U","GP_ID":"223838068","MEAN_MOTION_DOT":"-0.00000265","RCS_SIZE":"LARGE","EPHEMERIS_TYPE":"0","REF_FRAME":"TEME","BSTAR":"0.00000146210000","COUNTRY_CODE":"US","SEMIMAJOR_AXIS":"6917.878","OBJECT_NAME":"STARLINK-3591","PERIAPSIS":"538.969","RA_OF_ASC_NODE":"72.7565","SITE":"AFETR","TLE_LINE2":"2 51870  53.2151  72.7565 0001119  92.8090 267.3030 15.08840693 51531","FILE":"3763218","DECAY_DATE":null,"INCLINATION":"53.2151","MEAN_MOTION":"15.08840693","LAUNCH_DATE":"2022-03-03","APOAPSIS":"540.517","REV_AT_EPOCH":"5153"},{"TLE_LINE1":"1 51871U 22022V   23027.40485674  .00006466  00000-0  42385-3 0  9999","PERIOD":"95.437","ELEMENT_SET_NO":"999","CENTER_NAME":"EARTH","EPOCH":"2023-01-27T09:42:59.622336","ARG_OF_PERICENTER":"84.9680","ECCENTRICITY":"0.00015870","MEAN_MOTION_DDOT":"0.0000000000000","NORAD_CAT_ID":"51871","MEAN_ANOMALY":"275.1494","OBJECT_TYPE":"PAYLOAD","TIME_SYSTEM":"UTC","MEAN_ELEMENT_THEORY":"SGP4","OBJECT_ID":"2022-022V","CLASSIFICATION_TYPE":"U","GP_ID":"223813716","MEAN_MOTION_DOT":"0.00006466","RCS_SIZE":"LARGE","EPHEMERIS_TYPE":"0","BSTAR":"0.00042385000000","REF_FRAME":"TEME","COUNTRY_CODE":"US","OBJECT_NAME":"STARLINK-3567","SEMIMAJOR_AXIS":"6917.844","PERIAPSIS":"538.611","SITE":"AFETR","TLE_LINE2":"2 51871  53.2144  74.5986 0001587  84.9680 275.1494 15.08851862 51460","RA_OF_ASC_NODE":"74.5986","FILE":"3763126","DECAY_DATE":null,"MEAN_MOTION":"15.08851862","INCLINATION":"53.2144","LAUNCH_DATE":"2022-03-03","REV_AT_EPOCH":"5146","APOAPSIS":"540.807"},{"CLASSIFICATION_TYPE":"U","MEAN_MOTION_DOT":"0.00003206","RCS_SIZE":"LARGE","GP_ID":"223806137","EPOCH":"2023-01-27T08:18:12.725568","ARG_OF_PERICENTER":"96.3643","ECCENTRICITY":"0.00011770","MEAN_MOTION_DDOT":"0.0000000000000","TLE_LINE1":"1 51872U 22022W   23027.34598062  .00003206  00000-0  21942-3 0  9994","ELEMENT_SET_NO":"999","PERIOD":"95.438","CENTER_NAME":"EARTH","TIME_SYSTEM":"UTC","MEAN_ELEMENT_THEORY":"SGP4","OBJECT_ID":"2022-022W","NORAD_CAT_ID":"51872","MEAN_ANOMALY":"263.7483","OBJECT_TYPE":"PAYLOAD","FILE":"3762956","DECAY_DATE":null,"TLE_LINE2":"2 51872  53.2128  74.8673 0001177  96.3643 263.7483 15.08840372 51410","SITE":"AFETR","RA_OF_ASC_NODE":"74.8673","REV_AT_EPOCH":"5141","APOAPSIS":"540.558","MEAN_MOTION":"15.08840372","INCLINATION":"53.2128","LAUNCH_DATE":"2022-03-03","COUNTRY_CODE":"US","EPHEMERIS_TYPE":"0","BSTAR":"0.00021942000000","REF_FRAME":"TEME","OBJECT_NAME":"STARLINK-3554","SEMIMAJOR_AXIS":"6917.879","PERIAPSIS":"538.930"}];
